#aV2019  2 13  0  0  0.00000000     288 DD+AD WGS84 FIT  NGA
## 2040 259200.00000000   300.00000000 58527 0.0000000000000
+   31     1  2  3  5  6  7  8  9 10 11 12 13 14 15 16 17 18
+         19 20 21 22 23 24 25 26 27 28 29 30 31 32  0  0  0
+          0  0  0  0  0  0  0  0  0  0  0  0  0  0  0  0  0
+          0  0  0  0  0  0  0  0  0  0  0  0  0  0  0  0  0
+          0  0  0  0  0  0  0  0  0  0  0  0  0  0  0  0  0
++         2  2  2  2  2  2  2  2  2  2  2  2  2  2  2  2  2
++         2  2  2  2  2  2  2  2  2  2  2  2  2  2  0  0  0
++         0  0  0  0  0  0  0  0  0  0  0  0  0  0  0  0  0
++         0  0  0  0  0  0  0  0  0  0  0  0  0  0  0  0  0
++         0  0  0  0  0  0  0  0  0  0  0  0  0  0  0  0  0
%c cc cc ccc ccc cccc cccc cccc cccc ccccc ccccc ccccc ccccc
%c cc cc ccc ccc cccc cccc cccc cccc ccccc ccccc ccccc ccccc
%f  0.0000000  0.000000000  0.00000000000  0.000000000000000
%f  0.0000000  0.000000000  0.00000000000  0.000000000000000
%i    0    0    0    0      0      0      0      0         0
%i    0    0    0    0      0      0      0      0         0
/*      NGA, ST. LOUIS,MO.                                  
/*   EPHEMERIS COMPUTED FROM 2 DAYS OF DATA                 
/*   EPOCHA v3 SMOOTHER                                     
/*   G1762 IERS2010 SATAF SATAPC                            
*  2019  2 13  0 25  0.00000000
P  1  13661.233596 -20111.959584  10138.090762   -162.196143                    
V  1  -1735.532168  13312.883107  28578.874086     -0.069391                    
P  2 -15132.927505  -1434.057036 -21170.209993   -138.328064                    
V  2   6451.354538 -27612.986293  -2846.729485     -0.099081                    
P  3  19815.343801 -12958.614230 -11995.970407    182.648673                    
V  3  15349.376076  -1004.066283  26589.925261      0.018184                    
P  5 -25785.780824   1437.650421  -6759.675398      1.075251                    
V  5   7461.497256  -4777.145468 -29805.856349      0.000581                    
P  6  -9794.909857 -14359.273087 -20033.444336    277.007486                    
V  6   8524.720963 -24054.410918  13071.833851     -0.081821                    
P  7   5665.258026 -25454.531539   3712.402394     33.666744                    
V  7   4546.184460  -3216.361258 -31481.120531     -0.071962                    
P  8  17065.854349  -2221.074001  20330.705657   -132.537758                    
V  8  16982.687664  19211.611425 -11996.113241     -0.014487                    
P  9  -2217.536178 -20156.301086 -17196.682263    459.360917                    
V  9  16314.110090  14538.552916 -19206.739549     -0.052035                    
P 10  10390.845298  12644.104385  21008.435046    117.916866                    
V 10 -25712.239458   6480.175568   8650.115313     -0.075160                    
P 11  10924.921964 -17012.754074  16801.421636   -661.144609                    
V 11   5610.691881  21908.659919  17738.575339      0.059112                    
P 12 -21837.179016  10607.375430 -10756.430998    268.449252                    
V 12 -13516.517849    168.615114  28314.922845     -0.031941                    
P 13 -19193.355269  -6712.079539  16989.289983    -75.129644                    
V 13 -11340.248611 -18654.766878 -20007.476682      0.012383                    
P 14  18399.844124  18771.605710  -4131.783916    -91.507981                    
V 14   1358.909712   6050.455168  31054.906211      0.006751                    
P 15 -15976.536353   5931.283095  20194.707570   -328.110479                    
V 15 -18798.573904 -18365.073710  -8968.669816      0.016862                    
P 16  26210.651348    295.782164  -5730.344484    -18.832353                    
V 16  -6669.542699   2523.414807 -30903.201225     -0.024862                    
P 17 -13866.535579 -22200.854350   5202.937690      8.952717                    
V 17   5319.648991   3452.914456  31297.781205      0.054793                    
P 18  15789.380656 -11767.229001  17277.257265     25.396411                    
V 18  -3865.570177  22729.559885  18642.593676      0.038182                    
P 19 -18174.866219 -18733.458062  -4898.521048   -353.113970                    
V 19  -1792.711018  -5975.657009  31473.600327      0.041091                    
P 20     68.347453  16381.792392  20775.506393    522.145202                    
V 20 -25551.592088   8054.984991  -6371.635544      0.003778                    
P 21  -1381.689959  25858.529225   6963.040185   -251.274738                    
V 21  -4690.738686   6846.612254 -29728.632095      0.071842                    
P 22  24022.425834 -10369.368279  -4158.390271   -643.968214                    
V 22   6473.432881   2129.431849  30420.297389     -0.081535                    
P 23   8364.496247 -13338.483911 -21035.045220   -197.433755                    
V 23  19537.178305  19451.340766  -4904.617608      0.012538                    
P 24 -14783.168042  16977.582110  13685.603292    -62.084930                    
V 24   1639.224226 -17980.924322  24139.549064     -0.005480                    
P 25 -11433.532747  15410.447393 -18450.026281   -719.588773                    
V 25 -22857.931928   3549.082602  17567.611749     -0.054120                    
P 26  21914.122631   5030.351676 -14291.657925    122.849834                    
V 26 -17014.539401   6466.719575 -23664.610360      0.103538                    
P 27  20818.151460   8167.281918  14464.088363    -66.543973                    
V 27  11344.310910  14530.121403 -24099.138914     -0.072887                    
P 28  -7635.864323 -13764.206966  21995.736004    764.443226                    
V 28  26151.681699  -3844.819703   6954.580123      0.008519                    
P 29  -2604.177707  17602.079196 -19740.213891    271.858709                    
V 29 -16405.250743 -18827.683688 -14635.650029     -0.085957                    
P 30  -2370.199932 -22568.036582  13672.076973    -51.710265                    
V 30   8570.387061 -15454.998170 -24223.429568     -0.063945                    
P 31  10947.002279  12472.062355 -20631.008938     59.065724                    
V 31  -9651.913961  24512.807403  10131.860018     -0.027066                    
P 32  16791.706315  20515.863802   2446.259726   -229.685205                    
V 32  -4153.645107   -292.444707  31392.362517      0.185815                    
EOF
